[{"OBJECT_NAME":"STARLINK-35788","OBJECT_ID":"2025-280L","EPOCH":"2026-03-09T23:39:18.558144","MEAN_MOTION":14.98331939,"ECCENTRICITY":0.00020887,"INCLINATION":70.0032,"RA_OF_ASC_NODE":333.5703,"ARG_OF_PERICENTER":267.0048,"MEAN_ANOMALY":93.0873,"EPHEMERIS_TYPE":0,"CLASSIFICATION_TYPE":"U","NORAD_CAT_ID":66831,"ELEMENT_SET_NO":999,"REV_AT_EPOCH":1612,"BSTAR":0.00071711575,"MEAN_MOTION_DOT":8.474e-5,"MEAN_MOTION_DDOT":0},{"OBJECT_NAME":"DMSP 5D-2 F13 DEB","OBJECT_ID":"1995-015CP","EPOCH":"2026-03-07T12:11:36.379680","MEAN_MOTION":14.97633156,"ECCENTRICITY":0.00060588,"INCLINATION":98.7878,"RA_OF_ASC_NODE":156.2683,"ARG_OF_PERICENTER":182.3212,"MEAN_ANOMALY":177.798,"EPHEMERIS_TYPE":0,"CLASSIFICATION_TYPE":"U","NORAD_CAT_ID":40500,"ELEMENT_SET_NO":999,"REV_AT_EPOCH":57139,"BSTAR":0.013984163,"MEAN_MOTION_DOT":0.00167441,"MEAN_MOTION_DDOT":0}]
